STARLINK-2616
1 28695C 21044BK  21325.13733098 -.00020457  00000-0 -13704-2 0  3250
2 28695  53.0548 292.6017 0002071  58.9840 242.6048 15.06423219    10
